[{"OBJECT_NAME":"NUSAT-38 (MARIA AGNESI)","OBJECT_ID":"2023-054AA","EPOCH":"2026-03-09T23:32:56.689152","MEAN_MOTION":15.43783893,"ECCENTRICITY":0.00161894,"INCLINATION":97.3125,"RA_OF_ASC_NODE":338.4726,"ARG_OF_PERICENTER":64.5493,"MEAN_ANOMALY":295.7428,"EPHEMERIS_TYPE":0,"CLASSIFICATION_TYPE":"U","NORAD_CAT_ID":56202,"ELEMENT_SET_NO":999,"REV_AT_EPOCH":16317,"BSTAR":0.00076205358,"MEAN_MOTION_DOT":0.00034663,"MEAN_MOTION_DDOT":0},{"OBJECT_NAME":"OBJECT C","OBJECT_ID":"2024-173C","EPOCH":"2026-03-09T23:00:13.423680","MEAN_MOTION":15.43533019,"ECCENTRICITY":0.0013225,"INCLINATION":97.3461,"RA_OF_ASC_NODE":150.2678,"ARG_OF_PERICENTER":142.6968,"MEAN_ANOMALY":217.5201,"EPHEMERIS_TYPE":0,"CLASSIFICATION_TYPE":"U","NORAD_CAT_ID":61229,"ELEMENT_SET_NO":999,"REV_AT_EPOCH":8139,"BSTAR":0.00079015478,"MEAN_MOTION_DOT":0.00035589,"MEAN_MOTION_DDOT":0}]
